0 FENGYUN 1C DEB
1 36730U 99025EBC 13280.19537958  .00003836  00000-0  15595-2 0  2894
2 36730 099.6387 172.3913 0042636 299.9472 213.9079 14.27743071212396
0 FENGYUN 1C DEB
1 36730U 99025EBC 13283.20866144  .00005441  00000-0  22017-2 0  2904
2 36730 099.6385 175.7134 0042264 291.3833 221.9619 14.27771032212825
0 FENGYUN 1C DEB
1 36730U 99025EBC 13284.53392483  .00005586  00000-0  22593-2 0  2911
2 36730 099.6391 177.1746 0042087 287.6836 193.7556 14.27780688213016
0 FENGYUN 1C DEB
1 36730U 99025EBC 13287.20273627  .00004592  00000-0  18611-2 0  2929
2 36730 099.6399 180.1175 0041753 280.1052 231.6026 14.27802531213398
0 FENGYUN 1C DEB
1 36730U 99025EBC 13288.18397737  .00007347  00000-0  29634-2 0  2935
2 36730 099.6399 181.1988 0041380 277.4631 235.1459 14.27815250213536
0 FENGYUN 1C DEB
1 36730U 99025EBC 13289.91745519  .00005514  00000-0  22290-2 0  2948
2 36730 099.6391 183.1082 0041669 272.3497 145.7161 14.27830942213787
0 FENGYUN 1C DEB
1 36730U 99025EBC 13293.50439963  .00005645  00000-0  22800-2 0  2954
2 36730 099.6390 187.0659 0041187 261.7521 223.9886 14.27866340214295
